[{"OBJECT_NAME":"NORSAT 3","OBJECT_ID":"2021-034E","EPOCH":"2026-03-09T22:23:32.431200","MEAN_MOTION":15.04338407,"ECCENTRICITY":0.0005858,"INCLINATION":97.5427,"RA_OF_ASC_NODE":128.5959,"ARG_OF_PERICENTER":280.8366,"MEAN_ANOMALY":79.2201,"EPHEMERIS_TYPE":0,"CLASSIFICATION_TYPE":"U","NORAD_CAT_ID":48272,"ELEMENT_SET_NO":999,"REV_AT_EPOCH":26491,"BSTAR":0.00030361478,"MEAN_MOTION_DOT":4.174e-5,"MEAN_MOTION_DDOT":0},{"OBJECT_NAME":"STARLINK-34683","OBJECT_ID":"2025-152R","EPOCH":"2026-03-09T14:09:48.299904","MEAN_MOTION":15.05649619,"ECCENTRICITY":0.0002136,"INCLINATION":97.6013,"RA_OF_ASC_NODE":285.4335,"ARG_OF_PERICENTER":79.2546,"MEAN_ANOMALY":280.8921,"EPHEMERIS_TYPE":0,"CLASSIFICATION_TYPE":"U","NORAD_CAT_ID":64857,"ELEMENT_SET_NO":999,"REV_AT_EPOCH":3540,"BSTAR":0.00021944,"MEAN_MOTION_DOT":3.107e-5,"MEAN_MOTION_DDOT":0}]
